STARLINK-1476           
1 45753U 20038Z   21194.63640522  .00000729  00000-0  67842-4 0  9991
2 45753  53.0552 288.4615 0001016 136.1201 223.9869 15.06398713 60246
STARLINK-1477           
1 45754U 20038AA  21194.57375275  .00000453  00000-0  49305-4 0  9993
2 45754  53.0564 288.7455 0001044 131.9997 228.1081 15.06391473 61195
STARLINK-1478           
1 45755U 20038AB  21194.52583765  .00000305  00000-0  39364-4 0  9994
2 45755  53.0569 288.9578 0001108 122.7232 237.3864 15.06393300 60214
STARLINK-1484           
1 45756U 20038AC  21194.52215789  .00000359  00000-0  43009-4 0  9993
2 45756  53.0549 288.9744 0001204 112.6614 247.4503 15.06388415 61334
STARLINK-1486           
1 45757U 20038AD  21194.54056214  .00000293  00000-0  38557-4 0  9991
2 45757  53.0567 288.8900 0001726 171.6403 188.4615 15.06403531 61333
STARLINK-1487           
1 45758U 20038AE  21194.59955831  .00000539  00000-0  55097-4 0  9991
2 45758  53.0565 288.6219 0001007 143.5997 216.5060 15.06394082 60225
STARLINK-1493           
1 45759U 20038AF  21194.58112297  .00000419  00000-0  47031-4 0  9998
2 45759  53.0559 288.7148 0001051 110.9346 249.1756 15.06395014 61159
STARLINK-1494           
1 45760U 20038AG  21194.58480977  .00000559  00000-0  56419-4 0  9998
2 45760  53.0571 288.6886 0000981 131.9159 228.1913 15.06392475 61159
STARLINK-1495           
1 45761U 20038AH  21194.67697379  .00000574  00000-0  57411-4 0  9995
2 45761  53.0557 288.2848 0001082 131.0702 229.0381 15.06381864 60255
STARLINK-1499           
1 45762U 20038AJ  21194.68801261 -.00001233  00000-0 -63898-4 0  9995
2 45762  53.0569 288.2289 0000915 126.2591 233.8483 15.06391380 60254
STARLINK-1501           
1 45763U 20038AK  21194.52534191  .00037913  00000-0  36404-3 0  9998
2 45763  53.0363 281.3494 0000748 321.3698  38.7263 15.66253533 61240
STARLINK-1502           
1 45764U 20038AL  21194.54795526  .00000558  00000-0  56341-4 0  9990
2 45764  53.0539 288.8624 0001083 121.4802 238.6293 15.06393918 60230
STARLINK-1508           
1 45765U 20038AM  21194.68338897  .00000458  00000-0  49605-4 0  9994
2 45765  53.0561 288.2553 0001093 112.5260 247.5845 15.06394782 60255
STARLINK-1509           
1 45766U 20038AN  21194.60324156  .00002186  00000-0  16564-3 0  9997
2 45766  53.0562 288.6033 0001530 115.4793 244.6354 15.06392499 60226
STARLINK-1511           
1 45767U 20038AP  21194.52951776  .00000231  00000-0  34422-4 0  9996
2 45767  53.0549 288.9422 0001038 134.2951 225.8123 15.06393234 60217
STARLINK-1521           
1 45768U 20038AQ  21194.64378606  .00000449  00000-0  49056-4 0  9995
2 45768  53.0553 288.4279 0001161 131.5773 228.5315 15.06392793 60242
STARLINK-1459           
1 45769U 20038AR  21194.53504694 -.00001130  00000-0 -56969-4 0  9993
2 45769  53.0554 308.9177 0001216 115.1610 244.9505 15.06399477 61046
STARLINK-1462           
1 45770U 20038AS  21194.47145624  .00000349  00000-0  42343-4 0  9992
2 45770  53.0549 269.2026 0000930 110.0056 250.1033 15.06382668 61605
STARLINK-1463           
1 45771U 20038AT  21194.53136681  .00000284  00000-0  37971-4 0  9992
2 45771  53.0545 268.9343 0000834 132.5148 227.5912 15.06385035 60495
STARLINK-1470           
1 45772U 20038AU  21194.58665319 -.00001092  00000-0 -54442-4 0  9995
2 45772  53.0549 268.6852 0000918 128.0042 232.1030 15.06393671 60519
STARLINK-1482           
1 45773U 20038AV  21194.57930303  .00001133  00000-0  94957-4 0  9992
2 45773  53.0548 268.7157 0000937 115.7003 244.4083 15.06396731 60513
STARLINK-1485           
1 45774U 20038AW  21194.54980307  .00000234  00000-0  34599-4 0  9996
2 45774  53.0555 268.8524 0000909 117.2483 242.8599 15.06383493 60503
STARLINK-1488           
1 45775U 20038AX  21194.55348259  .00003804  00000-0  27409-3 0  9999
2 45775  53.0530 268.8357 0001012 106.8964 253.2136 15.06407075 60512
STARLINK-1489           
1 45776U 20038AY  21194.62719585  .00000616  00000-0  60250-4 0  9992
2 45776  53.0554 268.5086 0000902 134.5870 225.5193 15.06398096 60524
STARLINK-1490           
1 45777U 20038AZ  21194.62350651 -.00001523  00000-0 -83410-4 0  9991
2 45777  53.0545 268.5218 0000765 107.8032 252.3040 15.06389601 60523
STARLINK-1491           
1 45778U 20038BA  21194.60508005 -.00001254  00000-0 -65350-4 0  9992
2 45778  53.0558 268.6050 0000776 130.7439 229.3618 15.06388896 60509
STARLINK-1492           
1 45779U 20038BB  21194.46871806  .00001089  00000-0  92016-4 0  9992
2 45779  53.0568 269.2144 0001031 105.8356 254.2746 15.06385742 60481
STARLINK-1496           
1 45780U 20038BC  21194.61245894  .00000233  00000-0  34539-4 0  9999
2 45780  53.0567 268.5664 0000886 109.1678 250.9407 15.06382386 60503
STARLINK-1497           
1 45781U 20038BD  21194.50556248  .00000360  00000-0  43024-4 0  9996
2 45781  53.0564 269.0525 0000909 108.8218 251.2870 15.06398936 61423
STARLINK-1498           
1 45782U 20038BE  21194.49819339  .00000478  00000-0  50994-4 0  9992
2 45782  53.0546 269.0815 0000887 117.8919 242.2159 15.06397154 61420
STARLINK-1505           
1 45783U 20038BF  21194.63457396  .00000921  00000-0  80756-4 0  9992
2 45783  53.0536 268.4696 0001134 109.5347 250.5765 15.06391461 60529
STARLINK-1510           
1 45784U 20038BG  21194.54242946  .00000264  00000-0  36637-4 0  9995
2 45784  53.0547 268.8860 0000811 118.4978 241.6092 15.06384986 60505
STARLINK-1512           
1 45785U 20038BH  21194.52399251 -.00001327  00000-0 -70209-4 0  9992
2 45785  53.0554 268.9713 0000853 106.5848 253.5235 15.06391795 61421
STARLINK-1513           
1 45786U 20038BJ  21194.50925006  .00000888  00000-0  78482-4 0  9994
2 45786  53.0552 269.0328 0001108 112.0181 248.0926 15.06391748 60502
STARLINK-1517           
1 45787U 20038BK  21194.58296830  .00000288  00000-0  38226-4 0  9995
2 45787  53.0547 268.7003 0000889 103.2341 256.8747 15.06392582 61436
SKYSAT-C14              
1 45788U 20038BL  21195.08912147  .00004917  00000-0  70310-4 0  9991
2 45788  52.9987 174.3378 0006670 144.4989 215.6466 15.58257608 61874
SKYSAT-C16              
1 45789U 20038BM  21194.59780609  .00004761  00000-0  68241-4 0  9990
2 45789  52.9989 176.2739 0008681 134.3360 225.8364 15.58270092 61797
SKYSAT-C15              
1 45790U 20038BN  21194.74870916  .00004868  00000-0  69752-4 0  9996
2 45790  52.9978 175.7461 0005479 106.8382 253.3230 15.58229624 61819
GAOFEN 9-03             
1 45794U 20039A   21194.84527448  .00000742  00000-0  33872-4 0  9992
2 45794  97.3615 314.0248 0012434 356.7769 118.5143 15.23602118 59614
ZHEDA PIXING 3A         
1 45795U 20039B   21194.83836074  .00000829  00000-0  36306-4 0  9991
2 45795  97.3624 314.3549 0013104 337.5952 177.7626 15.24738705 59625
HEAD-5                  
1 45796U 20039C   21194.84044105  .00001131  00000-0  47507-4 0  9991
2 45796  97.3606 314.6019 0013431 342.5723 134.3117 15.25430048 59642
RED-EYE 2 (MERLOT)      
1 45800U 98067RM  21194.53626368  .00002697  00000-0  48614-4 0  9994
2 45800  51.6403 205.6579 0001796  37.7503 322.3613 15.53731491 60746
BEIDOU-3 G3             
1 45807U 20040A   21194.92336874 -.00000348  00000-0  00000-0 0  9995
2 45807   2.2212 298.6316 0004621 348.4766  87.8511  1.00271550  4040
RED-EYE 3 (CABERNET)    
1 45809U 98067RN  21194.40793578  .00002796  00000-0  50132-4 0  9995
2 45809  51.6405 206.3014 0001908  27.8355 332.2737 15.53732655 59703
NAVSTAR 79 (USA 304)    
1 45854U 20041A   21194.35840386 -.00000011  00000-0  00000-0 0  9990
2 45854  55.2787  99.8310 0012209 159.1531 200.9356  2.00565542  7934
GAOFEN DUOMO (GFDM)     
1 45856U 20042A   21194.89636311  .00000070  00000-0  17258-4 0  9994
2 45856  97.9797 270.4392 0015978 135.7266 224.5215 14.76786222 55450
BY70-2                  
1 45857U 20042B   21194.92923672  .00001288  00000-0  18938-3 0  9995
2 45857  97.9837 270.4021 0012646 124.7543 235.4853 14.77107449 55458
SHIYAN 6 02 (SY-6 02)   
1 45859U 20043A   21195.13314265 -.00000001  00000-0  11204-4 0  9997
2 45859  98.2007 205.5171 0093895  64.6454 296.4428 14.50102973 54694
APSTAR 6D               
1 45863U 20045A   21193.42074822 -.00000313  00000-0  00000-0 0  9990
2 45863   0.0294  88.7580 0002927  19.4140 107.7856  1.00265128  3808
DEMI                    
1 45916U 98067RP  21194.53674772  .00008775  00000-0  11482-3 0  9999
2 45916  51.6386 198.9290 0002606 344.3382  15.7530 15.59479659 56805
KOREASAT 116            
1 45920U 20048A   21194.78096675 -.00000358  00000-0  00000-0 0  9996
2 45920   0.0346 279.9666 0001161 232.2773 176.9747  1.00270460  3593
ZINYUAN-3               
1 45939U 20051A   21194.83074036  .00000498  00000-0  25376-4 0  9994
2 45939  97.4645 272.2768 0012188 156.6860 312.4610 15.21257847 53785
2020-051B               
1 45940U 20051B   21194.82486723  .00002227  00000-0  87415-4 0  9999
2 45940  97.4663 274.5716 0012993 109.6939  10.4404 15.26723423 53918
2020-051C               
1 45941U 20051C   21194.83688197  .00001067  00000-0  44415-4 0  9994
2 45941  97.4670 274.4658 0013886 110.0187 359.0284 15.25904381 53904
EXPRESS 103             
1 45985U 20053A   21187.67107219 -.00000270  00000-0  00000-0 0  9993
2 45985   0.0398 209.7812 0000260  51.0653   2.0809  1.00270715  3522
EXPRESS 80              
1 45986U 20053B   21188.02121844 -.00000125  00000-0  00000+0 0  9992
2 45986   0.0376 203.6888 0000824  76.4954  92.6424  1.00270402  3538
GAOFEN 9-04             
1 46025U 20054A   21194.83639377  .00000785  00000-0  35825-4 0  9998
2 46025  97.4377 270.0104 0015309 136.4300 333.0822 15.23475109 52011
Q-SAT                   
1 46026U 20054B   21194.83916877  .00001151  00000-0  49088-4 0  9996
2 46026  97.4375 270.4447 0017691 142.8733 327.2664 15.24856377 52055
STARLINK-1522           
1 46027U 20055A   21194.42356867  .00000000  00000-0  18866-4 0  9992
2 46027  53.0543 199.4154 0000517  46.6884 313.4148 15.06394069 52614
